{"epoch":1784902576,"count":18312,"objects":[{"id":"59598","name":"GALILEO 29 (10C)","type":"PAYLOAD","l1":"1 59598U 24079A   26204.47107102 -.00000048  00000-0  00000-0 0  9997","l2":"2 59598  55.1409 100.0656 0000263 338.6950 195.2242  1.70474088 13935"},{"id":"59600","name":"GALILEO 30 (10E)","type":"PAYLOAD","l1":"1 59600U 24079C   26204.95777630 -.00000047  00000-0  00000-0 0  9992","l2":"2 59600  55.1362 100.0504 0003050  72.2958 287.7718  1.70474036 13999"},{"id":"61182","name":"GALILEO 32 (137)","type":"PAYLOAD","l1":"1 61182U 24167A   26204.11527437  .00000075  00000-0  00000-0 0  9994","l2":"2 61182  55.1775 220.3273 0006357 233.9215 184.7136  1.70474277 11499"},{"id":"61183","name":"GALILEO 31 (10D)","type":"PAYLOAD","l1":"1 61183U 24167B   26202.99405729  .00000069  00000-0  00000-0 0  9991","l2":"2 61183  55.1766 220.3651 0003180 239.5530 302.2968  1.70474215 11440"},{"id":"61186","name":"BEIDOU 3M25","type":"PAYLOAD","l1":"1 61186U 24168B   26204.97149676 -.00000090  00000-0  00000-0 0  9996","l2":"2 61186  54.4380 300.9630 0003566 290.9859  68.9559  1.86230365 12460"},{"id":"61187","name":"BEIDOU 3M27","type":"PAYLOAD","l1":"1 61187U 24168C   26204.77205794 -.00000091  00000-0  00000-0 0  9990","l2":"2 61187  54.4336 300.9527 0000817  35.8427 325.4221  1.86230449  9949"},{"id":"62339","name":"NAVSTAR 83 (USA 440)","type":"PAYLOAD","l1":"1 62339U 24242A   26200.72170847 -.00000109  00000-0  00000-0 0  9994","l2":"2 62339  54.8338 332.8621 0017996   4.3540 337.1791  2.00572353 11908"},{"id":"62876","name":"QZS-6","type":"PAYLOAD","l1":"1 62876U 25023A   26205.16483343 -.00000228  00000-0  00000-0 0  9991","l2":"2 62876   0.0206  56.7395 0002105  59.8019 335.1892  1.00273612  5327"},{"id":"63130","name":"COSMOS 2584(GLONASS)","type":"PAYLOAD","l1":"1 63130U 25042A   26202.86533319 -.00000053  00000-0  00000-0 0  9995","l2":"2 63130  65.1046  71.6233 0005592 211.4404 148.5924  2.13103874 10784"},{"id":"64202","name":"NAVSTAR 84 (USA 545)","type":"PAYLOAD","l1":"1 64202U 25116A   26204.23516985 -.00000080  00000-0  00000+0 0  9990","l2":"2 64202  55.2596  29.6807 0008389 339.3259 202.3720  2.00573560  8598"},{"id":"65590","name":"COSMOS 2595 (GLONASS)","type":"PAYLOAD","l1":"1 65590U 25206B   26202.71196580 -.00000090  00000-0  00000-0 0  9999","l2":"2 65590  64.6120 313.7831 0011241 307.0070  51.3277  2.13101030  6640"},{"id":"67160","name":"GALILEO 33 (138)","type":"PAYLOAD","l1":"1 67160U 25302A   26202.83917450 -.00000048  00000-0  00000-0 0  9994","l2":"2 67160  54.3554 101.1433 0001184 153.0567  30.2541  1.70474120  3714"},{"id":"67162","name":"GALILEO 34 (139)","type":"PAYLOAD","l1":"1 67162U 25302C   26204.30262163 -.00000049  00000-0  00000+0 0  9994","l2":"2 67162  54.3582 101.1005 0001512 325.5942 215.9708  1.70474095  3796"},{"id":"67588","name":"NAVSTAR 85 (USA 581)","type":"PAYLOAD","l1":"1 67588U 26017A   26204.09379284 -.00000068  00000-0  00000+0 0  9990","l2":"2 67588  55.1115  87.3138 0021267 260.4452  99.3642  2.00570431432335"},{"id":"68791","name":"NAVSTAR 86 (USA 585)","type":"PAYLOAD","l1":"1 68791U 26087A   26204.05589674  .00000089  00000-0  00000+0 0  9998","l2":"2 68791  54.9614 206.3692 0020497 105.7313  72.5010  2.00573476  1552"}]}